STARLINK-2022           
1 47643U 21012Z   24194.86765729  .00001353  00000+0  10969-3 0  9999
2 47643  53.0548 246.7696 0001243  98.2121 261.9009 15.06397711189100
